1 40294U 14068A   20231.98583031  .00000007  00000-0  00000-0 0  9990
2 40294  55.3734 114.3961 0029987  44.6115 315.7114  2.00552869 42521
1 40294U 14068A   20232.48443898  .00000009  00000-0  00000-0 0  9994
2 40294  55.3737 114.3763 0029999  44.6501 315.6749  2.00552911 42538
1 40294U 14068A   20232.98304908  .00000009  00000-0  00000-0 0  9997
2 40294  55.3739 114.3564 0030013  44.6877 315.6390  2.00552881 42543
1 40294U 14068A   20233.98026076  .00000007  00000-0  00000+0 0  9992
2 40294  55.3744 114.3167 0030033  44.7462 315.5819  2.00553012 42543
1 40294U 14068A   20234.97747244 -.00000000  00000-0  00000-0 0  9994
2 40294  55.3750 114.2771 0030056  44.8210 315.5063  2.00553032 42562
1 40294U 14068A   20235.97467920 -.00000010  00000-0  00000-0 0  9996
2 40294  55.3755 114.2374 0030075  44.8967 315.4279  2.00553114 42600
1 40294U 14068A   20236.97188421 -.00000022  00000-0  00000-0 0  9996
2 40294  55.3760 114.1977 0030091  44.9598 315.3609  2.00553200 42605
1 40294U 14068A   20236.97188421 -.00000022  00000-0  00000-0 0  9996
2 40294  55.3760 114.1977 0030091  44.9598 315.3609  2.00553200 42627
1 40294U 14068A   20238.96629645 -.00000041  00000-0  00000-0 0  9996
2 40294  55.3772 114.1184 0030134  45.1893 315.1263  2.00553394 42649
1 40294U 14068A   20239.96350774 -.00000044  00000-0  00000-0 0  9994
2 40294  55.3777 114.0787 0030155  45.2642 315.0514  2.00553430 42669
1 40294U 14068A   20239.96350774 -.00000044  00000-0  00000-0 0  9994
2 40294  55.3777 114.0787 0030155  45.2642 315.0514  2.00553430 42681
1 40294U 14068A   20240.96072503 -.00000041  00000-0  00000-0 0  9994
2 40294  55.3783 114.0391 0030172  45.3375 314.9803  2.00553358 42680
1 40294U 14068A   20243.95236490 -.00000016  00000-0  00000-0 0  9995
2 40294  55.3798 113.9200 0030245  45.6438 314.6893  2.00553870 42761
1 40294U 14068A   20243.95236545 -.00000016  00000-0  00000+0 0  9995
2 40294  55.3798 113.9200 0030237  45.5797 314.7530  2.00553823 42744
1 40294U 14068A   20244.94957914 -.00000008  00000-0  00000-0 0  9997
2 40294  55.3803 113.8804 0030266  45.7437 314.5944  2.00553973 42782
1 40294U 14068A   20245.94679509 -.00000003  00000-0  00000-0 0  9994
2 40294  55.3809 113.8407 0030286  45.8237 314.5182  2.00553944 42780
1 40294U 14068A   20246.94400478 -.00000001  00000-0  00000-0 0  9990
2 40294  55.3814 113.8011 0030305  45.8864 314.4576  2.00554038 42809
1 40294U 14068A   20246.94400478 -.00000001  00000-0  00000-0 0  9990
2 40294  55.3814 113.8011 0030305  45.8864 314.4576  2.00554038 42821
1 40294U 14068A   20250.93282395 -.00000010  00000-0  00000+0 0  9999
2 40294  55.3836 113.6426 0030419  46.2228 314.1183  2.00554384 42889
1 40294U 14068A   20250.93282395 -.00000010  00000-0  00000-0 0  9990
2 40294  55.3836 113.6426 0030419  46.2228 314.1183  2.00554384 42889
1 40294U 14068A   20253.92443284 -.00000002  00000-0  00000+0 0  9998
2 40294  55.3854 113.5238 0030463  46.4456 313.8924  2.00554576 42942
1 40294U 14068A   20253.92443284 -.00000002  00000-0  00000-0 0  9999
2 40294  55.3854 113.5238 0030463  46.4456 313.8924  2.00554576 42964
1 40294U 14068A   20254.92163879  .00000005  00000-0  00000-0 0  9991
2 40294  55.3860 113.4841 0030479  46.4347 313.9042  2.00554597 42983
1 40294U 14068A   20255.91884526  .00000014  00000-0  00000-0 0  9990
2 40294  55.3866 113.4445 0030494  46.4880 313.8535  2.00554677 42983
1 40294U 14068A   20256.91605331  .00000023  00000-0  00000-0 0  9996
2 40294  55.3873 113.4048 0030508  46.5218 313.8233  2.00554751 43026
1 40294U 14068A   20257.91326299  .00000032  00000-0  00000-0 0  9990
2 40294  55.3878 113.3650 0030518  46.5373 313.8118  2.00554747 43029
1 40294U 14068A   20260.90487918  .00000043  00000-0  00000-0 0  9991
2 40294  55.3895 113.2459 0030564  46.7161 313.6399  2.00554938 43089
1 40294U 14068A   20261.90207587  .00000039  00000-0  00000-0 0  9999
2 40294  55.3901 113.2063 0030577  46.7876 313.5666  2.00555080 43103
1 40294U 14068A   20262.89927237  .00000030  00000-0  00000-0 0  9990
2 40294  55.3907 113.1666 0030588  46.9046 313.4457  2.00555128 43122
1 40294U 14068A   20263.89646560  .00000019  00000-0  00000-0 0  9995
2 40294  55.3913 113.1269 0030603  46.9435 313.4012  2.00555194 43162
1 40294U 14068A   20264.89365802  .00000008  00000-0  00000-0 0  9991
2 40294  55.3919 113.0872 0030613  47.0014 313.3376  2.00555274 43186
1 40294U 14068A   20265.89085313 -.00000001  00000-0  00000-0 0  9992
2 40294  55.3921 113.0475 0030625  47.0824 313.2519  2.00555313 43182
1 40294U 14068A   20266.38945130 -.00000004  00000-0  00000-0 0  9992
2 40294  55.3924 113.0277 0030631  47.1109 313.2217  2.00555333 43210
1 40294U 14068A   20267.88524685 -.00000005  00000-0  00000-0 0  9997
2 40294  55.3935 112.9683 0030645  47.1884 313.1423  2.00555509 43220
1 40294U 14068A   20267.88524685 -.00000005  00000-0  00000-0 0  9997
2 40294  55.3935 112.9683 0030645  47.1884 313.1423  2.00555509 43242
1 40294U 14068A   20269.38104960  .00000004  00000-0  00000-0 0  9992
2 40294  55.3946 112.9089 0030661  47.2669 313.0665  2.00555637 43254
1 40294U 14068A   20269.38104960  .00000004  00000-0  00000-0 0  9992
2 40294  55.3946 112.9089 0030661  47.2669 313.0665  2.00555637 43276
1 40294U 14068A   20271.37545581  .00000023  00000-0  00000-0 0  9993
2 40294  55.3958 112.8297 0030679  47.3695 312.9704  2.00555781 43292
1 40294U 14068A   20271.87405631  .00000027  00000-0  00000-0 0  9993
2 40294  55.3961 112.8099 0030691  47.4245 312.9169  2.00555896 43306
1 40294U 14068A   20272.87125701  .00000033  00000-0  00000-0 0  9998
2 40294  55.3967 112.7703 0030705  47.4820 312.8616  2.00555953 43320
1 40294U 14068A   20273.86845459  .00000036  00000-0  00000-0 0  9990
2 40294  55.3974 112.7307 0030715  47.5365 312.8077  2.00556055 43363
1 40294U 14068A   20274.36705327  .00000036  00000-0  00000-0 0  9995
2 40294  55.3977 112.7109 0030719  47.5706 312.7733  2.00556077 43372
1 40294U 14068A   20274.86565046  .00000035  00000-0  00000-0 0  9991
2 40294  55.3981 112.6911 0030725  47.5847 312.7585  2.00556122 43365
1 40294U 14068A   20275.86284385  .00000032  00000-0  00000-0 0  9993
2 40294  55.3986 112.6515 0030732  47.6350 312.7059  2.00556201 43407
1 40294U 14068A   20276.86003528  .00000029  00000-0  00000-0 0  9998
2 40294  55.3991 112.6119 0030741  47.6606 312.6768  2.00556250 43407
1 40294U 14068A   20276.86003528  .00000029  00000-0  00000-0 0  9998
2 40294  55.3991 112.6119 0030741  47.6606 312.6768  2.00556250 43429
1 40294U 14068A   20277.85722617  .00000026  00000-0  00000-0 0  9992
2 40294  55.3997 112.5724 0030764  47.7159 312.6178  2.00556335 43446
1 40294U 14068A   20278.35582054  .00000025  00000-0  00000-0 0  9996
2 40294  55.4001 112.5526 0030776  47.7343 312.5974  2.00556390 43434
1 40294U 14068A   20278.35582054  .00000025  00000-0  00000-0 0  9996
2 40294  55.4001 112.5526 0030776  47.7343 312.5974  2.00556390 43456
1 40294U 14068A   20280.84879650  .00000030  00000-0  00000+0 0  9999
2 40294  55.4017 112.4536 0030804  47.8475 312.4766  2.00556552 43483
1 40294U 14068A   20280.84879650  .00000030  00000-0  00000-0 0  9990
2 40294  55.4017 112.4536 0030804  47.8475 312.4766  2.00556552 43483
1 40294U 14068A   20281.84599064  .00000036  00000-0  00000-0 0  9995
2 40294  55.4023 112.4140 0030819  47.9019 312.4212  2.00556588 43522
1 40294U 14068A   20282.84318582  .00000044  00000-0  00000-0 0  9999
2 40294  55.4030 112.3744 0030825  47.9478 312.3757  2.00556622 43527
1 40294U 14068A   20283.84038113  .00000053  00000-0  00000-0 0  9999
2 40294  55.4037 112.3348 0030828  47.9915 312.3337  2.00556694 43560
1 40294U 14068A   20284.83757713  .00000062  00000-0  00000-0 0  9993
2 40294  55.4043 112.2952 0030835  48.0090 312.3185  2.00556778 43565
1 40294U 14068A   20284.83757713  .00000062  00000-0  00000-0 0  9993
2 40294  55.4043 112.2952 0030835  48.0090 312.3185  2.00556778 43587
1 40294U 14068A   20287.33056482  .00000075  00000-0  00000+0 0  9999
2 40294  55.4058 112.1961 0030857  48.1009 312.2304  2.00556886 43613
1 40294U 14068A   20287.33056482  .00000075  00000-0  00000-0 0  9990
2 40294  55.4058 112.1961 0030857  48.1009 312.2304  2.00556886 43635
1 40294U 14068A   20287.82916033  .00000075  00000-0  00000-0 0  9991
2 40294  55.4061 112.1763 0030860  48.1240 312.2068  2.00556915 43629
1 40294U 14068A   20288.32775470  .00000074  00000-0  00000-0 0  9994
2 40294  55.4064 112.1564 0030862  48.1471 312.1827  2.00556953 43656
1 40294U 14068A   20288.82634906  .00000072  00000-0  00000-0 0  9995
2 40294  55.4067 112.1366 0030867  48.1678 312.1603  2.00556962 43644
1 40294U 14068A   20290.32212472  .00000059  00000-0  00000-0 0  9998
2 40294  55.4077 112.0771 0030873  48.2356 312.0844  2.00557076 43671
1 40294U 14068A   20290.82071537  .00000053  00000-0  00000-0 0  9992
2 40294  55.4081 112.0573 0030872  48.2612 312.0553  2.00557116 43706
1 40294U 14068A   20291.31930636  .00000047  00000-0  00000-0 0  9994
2 40294  55.4083 112.0375 0030867  48.2747 312.0381  2.00557115 43697
1 40294U 14068A   20291.81789701  .00000041  00000-0  00000-0 0  9998
2 40294  55.4087 112.0176 0030871  48.2937 312.0154  2.00557174 43701
1 40294U 14068A   20292.81507849  .00000030  00000-0  00000-0 0  9998
2 40294  55.4093 111.9780 0030880  48.3292 311.9733  2.00557235 43723
1 40294U 14068A   20293.81226084  .00000023  00000-0  00000-0 0  9990
2 40294  55.4100 111.9384 0030875  48.3519 311.9453  2.00557359 43746
1 40294U 14068A   20296.30523033  .00000026  00000-0  00000+0 0  9993
2 40294  55.4117 111.8393 0030889  48.4265 311.8677  2.00557575 43799
1 40294U 14068A   20296.30523033  .00000026  00000-0  00000-0 0  9994
2 40294  55.4117 111.8393 0030889  48.4265 311.8677  2.00557575 43812
1 40294U 14068A   20297.30242123  .00000033  00000-0  00000-0 0  9991
2 40294  55.4124 111.7997 0030889  48.4446 311.8512  2.00557655 43839
